{
    "links": {
        "self": "http://www.neowsapp.com/rest/v1/neo/3781647?api_key=iIulBulltgU6a56xZRHN4H3l9WmuAYTsLGpBGhQ2"
    },
    "id": "3781647",
    "neo_reference_id": "3781647",
    "name": "(2017 SK10)",
    "designation": "2017 SK10",
    "nasa_jpl_url": "http://ssd.jpl.nasa.gov/sbdb.cgi?sstr=3781647",
    "absolute_magnitude_h": 21.4,
    "estimated_diameter": {
        "kilometers": {
            "estimated_diameter_min": 0.1394938229,
            "estimated_diameter_max": 0.3119176705
        },
        "meters": {
            "estimated_diameter_min": 139.4938229344,
            "estimated_diameter_max": 311.9176705226
        },
        "miles": {
            "estimated_diameter_min": 0.0866774163,
            "estimated_diameter_max": 0.1938165949
        },
        "feet": {
            "estimated_diameter_min": 457.6569140361,
            "estimated_diameter_max": 1023.3519701574
        }
    },
    "is_potentially_hazardous_asteroid": false,
    "close_approach_data": [
        {
            "close_approach_date": "2017-09-04",
            "close_approach_date_full": "2017-Sep-04 18:23",
            "epoch_date_close_approach": 1504549380000,
            "relative_velocity": {
                "kilometers_per_second": "32.1613892668",
                "kilometers_per_hour": "115781.001360394",
                "miles_per_hour": "71941.8116508515"
            },
            "miss_distance": {
                "astronomical": "0.2154751698",
                "lunar": "83.8198410522",
                "kilometers": "32234626.439968326",
                "miles": "20029668.0817458588"
            },
            "orbiting_body": "Earth"
        }
    ],
    "orbital_data": {
        "orbit_id": "3",
        "orbit_determination_date": "2017-09-25 06:51:24",
        "first_observation_date": "2017-09-17",
        "last_observation_date": "2017-09-24",
        "data_arc_in_days": 7,
        "observations_used": 35,
        "orbit_uncertainty": "9",
        "minimum_orbit_intersection": ".113347",
        "jupiter_tisserand_invariant": "2.946",
        "epoch_osculation": "2458016.5",
        "eccentricity": ".9319420892950468",
        "semi_major_axis": "2.055603377217921",
        "inclination": "24.51573391027844",
        "ascending_node_longitude": "3.32893545773006",
        "orbital_period": "1076.483582252669",
        "perihelion_distance": ".1399000710914974",
        "perihelion_argument": "202.4345497583062",
        "aphelion_distance": "3.971306683344344",
        "perihelion_time": "2457959.745819468096",
        "mean_anomaly": "18.97985749929424",
        "mean_motion": ".3344221927162676",
        "equinox": "J2000",
        "orbit_class": {
            "orbit_class_type": "APO",
            "orbit_class_description": "Near-Earth asteroid orbits which cross the Earth’s orbit similar to that of 1862 Apollo",
            "orbit_class_range": "a (semi-major axis) > 1.0 AU; q (perihelion) < 1.017 AU"
        }
    },
    "is_sentry_object": false
}